{
  "norad_id": 53080,
  "name": "STARLINK-4330",
  "history": [
    {
      "epoch": "2026-04-13T06:01:54.960384Z",
      "apogee_km": 550.434532797628,
      "perigee_km": 548.5935788060588,
      "latitude_deg": 1.0562642164808116e-05,
      "longitude_deg": -6.651194828868002,
      "height_km": 552.5505609047615,
      "semi_major_axis_km": 6927.651055801843,
      "eccentricity": 0.00013287,
      "inclination_deg": 97.6019,
      "raan_deg": 285.2726,
      "arg_perigee_deg": 88.3453,
      "mean_anomaly_deg": 271.7926,
      "mean_motion_rev_day": 15.05649054
    },
    {
      "epoch": "2026-04-14T18:43:00.952032Z",
      "apogee_km": 550.4193927073056,
      "perigee_km": 548.6168168490412,
      "latitude_deg": 2.6217593968783463e-05,
      "longitude_deg": 163.07344019048088,
      "height_km": 552.6060830258074,
      "semi_major_axis_km": 6927.655104778173,
      "eccentricity": 0.0001301,
      "inclination_deg": 97.6028,
      "raan_deg": 286.7788,
      "arg_perigee_deg": 91.581,
      "mean_anomaly_deg": 268.5566,
      "mean_motion_rev_day": 15.05647734
    },
    {
      "epoch": "2026-04-15T12:15:43.082784Z",
      "apogee_km": 550.4469362830714,
      "perigee_km": 548.5930952656508,
      "latitude_deg": 9.765298945642103e-06,
      "longitude_deg": -100.10225010853098,
      "height_km": 552.6222118807502,
      "semi_major_axis_km": 6927.657015774361,
      "eccentricity": 0.0001338,
      "inclination_deg": 97.6023,
      "raan_deg": 287.4992,
      "arg_perigee_deg": 92.4192,
      "mean_anomaly_deg": 267.7188,
      "mean_motion_rev_day": 15.05647111
    },
    {
      "epoch": "2026-04-16T18:34:01.047072Z",
      "apogee_km": 550.4876794784213,
      "perigee_km": 548.5493214693888,
      "latitude_deg": 2.876316894454616e-05,
      "longitude_deg": 165.32271689329644,
      "height_km": 552.6430150102639,
      "semi_major_axis_km": 6927.655500473905,
      "eccentricity": 0.0001399,
      "inclination_deg": 97.6023,
      "raan_deg": 288.7436,
      "arg_perigee_deg": 93.6406,
      "mean_anomaly_deg": 266.4981,
      "mean_motion_rev_day": 15.05647605
    },
    {
      "epoch": "2026-04-17T18:29:31.257888Z",
      "apogee_km": 550.5375317762628,
      "perigee_km": 548.5177018805807,
      "latitude_deg": -4.947951047777679e-05,
      "longitude_deg": 166.4468829578066,
      "height_km": 552.6483793162449,
      "semi_major_axis_km": 6927.6646168284215,
      "eccentricity": 0.00014578,
      "inclination_deg": 97.6023,
      "raan_deg": 289.7262,
      "arg_perigee_deg": 93.2856,
      "mean_anomaly_deg": 266.8537,
      "mean_motion_rev_day": 15.05644633
    },
    {
      "epoch": "2026-04-18T18:25:01.091136Z",
      "apogee_km": 550.5670395818406,
      "perigee_km": 548.4665749474789,
      "latitude_deg": -2.5719705104300643e-05,
      "longitude_deg": 167.57241192938108,
      "height_km": 552.6275951162497,
      "semi_major_axis_km": 6927.65380726466,
      "eccentricity": 0.0001516,
      "inclination_deg": 97.6022,
      "raan_deg": 290.7086,
      "arg_perigee_deg": 92.6198,
      "mean_anomaly_deg": 267.5202,
      "mean_motion_rev_day": 15.05648157
    },
    {
      "epoch": "2026-04-19T18:20:31.180128Z",
      "apogee_km": 550.5942932893468,
      "perigee_km": 548.4536460497193,
      "latitude_deg": 2.688480084639651e-05,
      "longitude_deg": 168.6957673329054,
      "height_km": 552.6046739251087,
      "semi_major_axis_km": 6927.660969669532,
      "eccentricity": 0.0001545,
      "inclination_deg": 97.6014,
      "raan_deg": 291.6899,
      "arg_perigee_deg": 90.9618,
      "mean_anomaly_deg": 269.1786,
      "mean_motion_rev_day": 15.05645822
    },
    {
      "epoch": "2026-04-20T05:30:25.483104Z",
      "apogee_km": 550.5935409649028,
      "perigee_km": 548.5027655856447,
      "latitude_deg": 4.093032736530152e-05,
      "longitude_deg": 1.2183685536305635,
      "height_km": 552.5903829746696,
      "semi_major_axis_km": 6927.6851532752735,
      "eccentricity": 0.0001509,
      "inclination_deg": 97.5987,
      "raan_deg": 292.1473,
      "arg_perigee_deg": 88.8694,
      "mean_anomaly_deg": 271.2706,
      "mean_motion_rev_day": 15.05637938
    },
    {
      "epoch": "2026-04-21T05:25:55.295616Z",
      "apogee_km": 550.5982018847271,
      "perigee_km": 548.4916323673679,
      "latitude_deg": -8.752238381771513e-05,
      "longitude_deg": 2.342901794362948,
      "height_km": 552.5791302627179,
      "semi_major_axis_km": 6927.681917126048,
      "eccentricity": 0.00015204,
      "inclination_deg": 97.5936,
      "raan_deg": 293.1286,
      "arg_perigee_deg": 88.4336,
      "mean_anomaly_deg": 271.7064,
      "mean_motion_rev_day": 15.05638993
    },
    {
      "epoch": "2026-04-22T18:07:01.282944Z",
      "apogee_km": 550.5843104023897,
      "perigee_km": 548.4658313411164,
      "latitude_deg": 4.417158857763319e-06,
      "longitude_deg": 172.065339274358,
      "height_km": 552.597371779496,
      "semi_major_axis_km": 6927.662070871753,
      "eccentricity": 0.0001529,
      "inclination_deg": 97.5865,
      "raan_deg": 294.6326,
      "arg_perigee_deg": 90.4923,
      "mean_anomaly_deg": 269.6479,
      "mean_motion_rev_day": 15.05645463
    },
    {
      "epoch": "2026-04-23T11:39:43.308288Z",
      "apogee_km": 550.4152372939752,
      "perigee_km": 548.6330271910947,
      "latitude_deg": -1.5961647118727417e-05,
      "longitude_deg": -91.11271292214629,
      "height_km": 552.5835205269598,
      "semi_major_axis_km": 6927.661132242534,
      "eccentricity": 0.00012863,
      "inclination_deg": 97.5814,
      "raan_deg": 295.3502,
      "arg_perigee_deg": 89.7192,
      "mean_anomaly_deg": 270.4182,
      "mean_motion_rev_day": 15.05645769
    }
  ]
}